[{"OBJECT_NAME":"STARLINK-30795","OBJECT_ID":"2023-162A","EPOCH":"2026-03-09T22:00:01.999584","MEAN_MOTION":15.26752107,"ECCENTRICITY":0.00012389,"INCLINATION":42.9999,"RA_OF_ASC_NODE":130.7306,"ARG_OF_PERICENTER":244.8667,"MEAN_ANOMALY":252.8095,"EPHEMERIS_TYPE":0,"CLASSIFICATION_TYPE":"U","NORAD_CAT_ID":58118,"ELEMENT_SET_NO":999,"REV_AT_EPOCH":567,"BSTAR":7.5123484e-5,"MEAN_MOTION_DOT":1.757e-5,"MEAN_MOTION_DDOT":0},{"OBJECT_NAME":"OBJECT C","OBJECT_ID":"2025-197C","EPOCH":"2026-03-09T23:04:01.696800","MEAN_MOTION":15.23580455,"ECCENTRICITY":0.00147185,"INCLINATION":97.4111,"RA_OF_ASC_NODE":257.1199,"ARG_OF_PERICENTER":4.9748,"MEAN_ANOMALY":355.1632,"EPHEMERIS_TYPE":0,"CLASSIFICATION_TYPE":"U","NORAD_CAT_ID":65490,"ELEMENT_SET_NO":999,"REV_AT_EPOCH":2820,"BSTAR":0.00026991529,"MEAN_MOTION_DOT":6.405e-5,"MEAN_MOTION_DDOT":0}]
